[{"OBJECT_NAME":"STARLINK-5686","OBJECT_ID":"2023-015B","EPOCH":"2025-08-10T04:36:06.877728","MEAN_MOTION":15.02538246,"ECCENTRICITY":0.0001314,"INCLINATION":43.0048,"RA_OF_ASC_NODE":35.6938,"ARG_OF_PERICENTER":264.6731,"MEAN_ANOMALY":95.3961,"EPHEMERIS_TYPE":0,"CLASSIFICATION_TYPE":"U","NORAD_CAT_ID":55450,"ELEMENT_SET_NO":999,"REV_AT_EPOCH":13987,"BSTAR":3.4564e-5,"MEAN_MOTION_DOT":2.63e-6,"MEAN_MOTION_DDOT":0},{"OBJECT_NAME":"STARLINK-5656","OBJECT_ID":"2023-015C","EPOCH":"2025-08-10T04:26:31.540128","MEAN_MOTION":15.02536534,"ECCENTRICITY":0.0001382,"INCLINATION":43.0043,"RA_OF_ASC_NODE":35.6442,"ARG_OF_PERICENTER":266.8992,"MEAN_ANOMALY":93.1692,"EPHEMERIS_TYPE":0,"CLASSIFICATION_TYPE":"U","NORAD_CAT_ID":55451,"ELEMENT_SET_NO":999,"REV_AT_EPOCH":13893,"BSTAR":-3.5117e-6,"MEAN_MOTION_DOT":-2.51e-6,"MEAN_MOTION_DDOT":0},{"OBJECT_NAME":"STARLINK-5683","OBJECT_ID":"2023-015D","EPOCH":"2025-08-10T10:43:02.511840","MEAN_MOTION":15.02521796,"ECCENTRICITY":0.0001152,"INCLINATION":43.0051,"RA_OF_ASC_NODE":34.1647,"ARG_OF_PERICENTER":268.5763,"MEAN_ANOMALY":91.4947,"EPHEMERIS_TYPE":0,"CLASSIFICATION_TYPE":"U","NORAD_CAT_ID":55452,"ELEMENT_SET_NO":999,"REV_AT_EPOCH":13897,"BSTAR":9.6619e-5,"MEAN_MOTION_DOT":1.101e-5,"MEAN_MOTION_DDOT":0},{"OBJECT_NAME":"STARLINK-5684","OBJECT_ID":"2023-015E","EPOCH":"2025-08-10T04:15:20.753856","MEAN_MOTION":15.02532317,"ECCENTRICITY":0.0001311,"INCLINATION":43.0047,"RA_OF_ASC_NODE":35.5849,"ARG_OF_PERICENTER":266.5245,"MEAN_ANOMALY":93.5447,"EPHEMERIS_TYPE":0,"CLASSIFICATION_TYPE":"U","NORAD_CAT_ID":55453,"ELEMENT_SET_NO":999,"REV_AT_EPOCH":13893,"BSTAR":-4.6005e-5,"MEAN_MOTION_DOT":-8.25e-6,"MEAN_MOTION_DDOT":0},{"OBJECT_NAME":"STARLINK-5636","OBJECT_ID":"2023-015F","EPOCH":"2025-08-10T04:05:45.163104","MEAN_MOTION":15.02535019,"ECCENTRICITY":6.71e-5,"INCLINATION":43.0035,"RA_OF_ASC_NODE":35.5249,"ARG_OF_PERICENTER":266.015,"MEAN_ANOMALY":94.0616,"EPHEMERIS_TYPE":0,"CLASSIFICATION_TYPE":"U","NORAD_CAT_ID":55454,"ELEMENT_SET_NO":999,"REV_AT_EPOCH":13893,"BSTAR":-8.0261e-5,"MEAN_MOTION_DOT":-1.287e-5,"MEAN_MOTION_DDOT":0},{"OBJECT_NAME":"STARLINK-5680","OBJECT_ID":"2023-015G","EPOCH":"2025-08-09T22:02:00.946464","MEAN_MOTION":15.02533793,"ECCENTRICITY":0.0001227,"INCLINATION":43.0048,"RA_OF_ASC_NODE":37.0808,"ARG_OF_PERICENTER":267.1265,"MEAN_ANOMALY":92.9437,"EPHEMERIS_TYPE":0,"CLASSIFICATION_TYPE":"U","NORAD_CAT_ID":55455,"ELEMENT_SET_NO":999,"REV_AT_EPOCH":13889,"BSTAR":4.2073e-5,"MEAN_MOTION_DOT":3.65e-6,"MEAN_MOTION_DDOT":0},{"OBJECT_NAME":"STARLINK-5058","OBJECT_ID":"2023-015H","EPOCH":"2025-08-10T04:07:20.463168","MEAN_MOTION":15.02544492,"ECCENTRICITY":0.0002024,"INCLINATION":43.0042,"RA_OF_ASC_NODE":35.5429,"ARG_OF_PERICENTER":272.3575,"MEAN_ANOMALY":87.7036,"EPHEMERIS_TYPE":0,"CLASSIFICATION_TYPE":"U","NORAD_CAT_ID":55456,"ELEMENT_SET_NO":999,"REV_AT_EPOCH":13893,"BSTAR":-5.1731e-5,"MEAN_MOTION_DOT":-9.03e-6,"MEAN_MOTION_DDOT":0},{"OBJECT_NAME":"STARLINK-5682","OBJECT_ID":"2023-015J","EPOCH":"2025-08-10T04:10:32.902752","MEAN_MOTION":15.02533933,"ECCENTRICITY":0.0001201,"INCLINATION":43.0039,"RA_OF_ASC_NODE":35.5592,"ARG_OF_PERICENTER":276.0392,"MEAN_ANOMALY":84.0314,"EPHEMERIS_TYPE":0,"CLASSIFICATION_TYPE":"U","NORAD_CAT_ID":55457,"ELEMENT_SET_NO":999,"REV_AT_EPOCH":13893,"BSTAR":-4.2218e-6,"MEAN_MOTION_DOT":-2.61e-6,"MEAN_MOTION_DDOT":0},{"OBJECT_NAME":"STARLINK-5020","OBJECT_ID":"2023-015K","EPOCH":"2025-08-10T11:50:00.378816","MEAN_MOTION":15.02520668,"ECCENTRICITY":0.0002169,"INCLINATION":43.0077,"RA_OF_ASC_NODE":33.653,"ARG_OF_PERICENTER":275.3914,"MEAN_ANOMALY":84.6681,"EPHEMERIS_TYPE":0,"CLASSIFICATION_TYPE":"U","NORAD_CAT_ID":55458,"ELEMENT_SET_NO":999,"REV_AT_EPOCH":13898,"BSTAR":-9.0904e-5,"MEAN_MOTION_DOT":-1.431e-5,"MEAN_MOTION_DDOT":0},{"OBJECT_NAME":"STARLINK-5669","OBJECT_ID":"2023-015L","EPOCH":"2025-08-10T03:57:45.503136","MEAN_MOTION":15.02536538,"ECCENTRICITY":0.0001275,"INCLINATION":43.0048,"RA_OF_ASC_NODE":35.4922,"ARG_OF_PERICENTER":264.4247,"MEAN_ANOMALY":95.645,"EPHEMERIS_TYPE":0,"CLASSIFICATION_TYPE":"U","NORAD_CAT_ID":55459,"ELEMENT_SET_NO":999,"REV_AT_EPOCH":13893,"BSTAR":5.3289e-6,"MEAN_MOTION_DOT":-1.32e-6,"MEAN_MOTION_DDOT":0},{"OBJECT_NAME":"STARLINK-5678","OBJECT_ID":"2023-015M","EPOCH":"2025-08-10T11:51:35.958816","MEAN_MOTION":15.02537224,"ECCENTRICITY":0.0001359,"INCLINATION":43.0049,"RA_OF_ASC_NODE":33.6601,"ARG_OF_PERICENTER":263.8807,"MEAN_ANOMALY":96.188,"EPHEMERIS_TYPE":0,"CLASSIFICATION_TYPE":"U","NORAD_CAT_ID":55460,"ELEMENT_SET_NO":999,"REV_AT_EPOCH":13898,"BSTAR":1.0105e-5,"MEAN_MOTION_DOT":-6.7e-7,"MEAN_MOTION_DDOT":0},{"OBJECT_NAME":"STARLINK-5646","OBJECT_ID":"2023-015N","EPOCH":"2025-08-10T04:02:33.116640","MEAN_MOTION":15.02534506,"ECCENTRICITY":0.0001435,"INCLINATION":43.0051,"RA_OF_ASC_NODE":35.5165,"ARG_OF_PERICENTER":265.5528,"MEAN_ANOMALY":94.515,"EPHEMERIS_TYPE":0,"CLASSIFICATION_TYPE":"U","NORAD_CAT_ID":55461,"ELEMENT_SET_NO":999,"REV_AT_EPOCH":13893,"BSTAR":1.8514e-5,"MEAN_MOTION_DOT":4.6e-7,"MEAN_MOTION_DDOT":0},{"OBJECT_NAME":"STARLINK-5673","OBJECT_ID":"2023-015P","EPOCH":"2025-08-09T19:38:19.960512","MEAN_MOTION":15.02540379,"ECCENTRICITY":0.0001145,"INCLINATION":43.0038,"RA_OF_ASC_NODE":37.1889,"ARG_OF_PERICENTER":270.5673,"MEAN_ANOMALY":89.5038,"EPHEMERIS_TYPE":0,"CLASSIFICATION_TYPE":"U","NORAD_CAT_ID":55462,"ELEMENT_SET_NO":999,"REV_AT_EPOCH":13888,"BSTAR":9.5685e-5,"MEAN_MOTION_DOT":1.089e-5,"MEAN_MOTION_DDOT":0},{"OBJECT_NAME":"STARLINK-5677","OBJECT_ID":"2023-015Q","EPOCH":"2025-08-10T11:43:35.560992","MEAN_MOTION":15.02612052,"ECCENTRICITY":0.0001778,"INCLINATION":43.0041,"RA_OF_ASC_NODE":33.6162,"ARG_OF_PERICENTER":283.3192,"MEAN_ANOMALY":76.7452,"EPHEMERIS_TYPE":0,"CLASSIFICATION_TYPE":"U","NORAD_CAT_ID":55463,"ELEMENT_SET_NO":999,"REV_AT_EPOCH":13898,"BSTAR":-0.0014094,"MEAN_MOTION_DOT":-0.00019229,"MEAN_MOTION_DDOT":0},{"OBJECT_NAME":"STARLINK-5676","OBJECT_ID":"2023-015R","EPOCH":"2025-08-10T05:03:06.742944","MEAN_MOTION":15.02539644,"ECCENTRICITY":0.0001259,"INCLINATION":43.0041,"RA_OF_ASC_NODE":34.9714,"ARG_OF_PERICENTER":261.4821,"MEAN_ANOMALY":98.5878,"EPHEMERIS_TYPE":0,"CLASSIFICATION_TYPE":"U","NORAD_CAT_ID":55464,"ELEMENT_SET_NO":999,"REV_AT_EPOCH":13894,"BSTAR":6.0158e-5,"MEAN_MOTION_DOT":6.09e-6,"MEAN_MOTION_DDOT":0},{"OBJECT_NAME":"STARLINK-5674","OBJECT_ID":"2023-015S","EPOCH":"2025-08-10T05:07:54.786720","MEAN_MOTION":15.02536156,"ECCENTRICITY":0.0001336,"INCLINATION":43.0046,"RA_OF_ASC_NODE":34.9953,"ARG_OF_PERICENTER":266.1275,"MEAN_ANOMALY":93.9414,"EPHEMERIS_TYPE":0,"CLASSIFICATION_TYPE":"U","NORAD_CAT_ID":55465,"ELEMENT_SET_NO":999,"REV_AT_EPOCH":13894,"BSTAR":8.7512e-6,"MEAN_MOTION_DOT":-8.5e-7,"MEAN_MOTION_DDOT":0},{"OBJECT_NAME":"STARLINK-5628","OBJECT_ID":"2023-015T","EPOCH":"2025-08-10T04:43:55.955424","MEAN_MOTION":15.02538646,"ECCENTRICITY":0.0001305,"INCLINATION":43.0038,"RA_OF_ASC_NODE":34.8713,"ARG_OF_PERICENTER":266.1188,"MEAN_ANOMALY":93.9505,"EPHEMERIS_TYPE":0,"CLASSIFICATION_TYPE":"U","NORAD_CAT_ID":55466,"ELEMENT_SET_NO":999,"REV_AT_EPOCH":13894,"BSTAR":3.9365e-5,"MEAN_MOTION_DOT":3.28e-6,"MEAN_MOTION_DDOT":0}]
