STARLINK-5686           
1 55450U 23015B   25222.19174627  .00000263  00000+0  34564-4 0  9996
2 55450  43.0048  35.6938 0001314 264.6731  95.3961 15.02538246139879
STARLINK-5656           
1 55451U 23015C   25222.18508727 -.00000251  00000+0 -35117-5 0  9993
2 55451  43.0043  35.6442 0001382 266.8992  93.1692 15.02536534138934
STARLINK-5683           
1 55452U 23015D   25222.44655685  .00001101  00000+0  96619-4 0  9995
2 55452  43.0051  34.1647 0001152 268.5763  91.4947 15.02521796138977
STARLINK-5684           
1 55453U 23015E   25222.17732354 -.00000825  00000+0 -46005-4 0  9993
2 55453  43.0047  35.5849 0001311 266.5245  93.5447 15.02532317138937
STARLINK-5636           
1 55454U 23015F   25222.17066161 -.00001287  00000+0 -80261-4 0  9995
2 55454  43.0035  35.5249 0000671 266.0150  94.0616 15.02535019138933
STARLINK-5680           
1 55455U 23015G   25221.91806651  .00000365  00000+0  42073-4 0  9996
2 55455  43.0048  37.0808 0001227 267.1265  92.9437 15.02533793138893
STARLINK-5058           
1 55456U 23015H   25222.17176462 -.00000903  00000+0 -51731-4 0  9997
2 55456  43.0042  35.5429 0002024 272.3575  87.7036 15.02544492138938
STARLINK-5682           
1 55457U 23015J   25222.17399193 -.00000261  00000+0 -42218-5 0  9994
2 55457  43.0039  35.5592 0001201 276.0392  84.0314 15.02533933138937
STARLINK-5020           
1 55458U 23015K   25222.49305994 -.00001431  00000+0 -90904-4 0  9990
2 55458  43.0077  33.6530 0002169 275.3914  84.6681 15.02520668138986
STARLINK-5669           
1 55459U 23015L   25222.16510999 -.00000132  00000+0  53289-5 0  9990
2 55459  43.0048  35.4922 0001275 264.4247  95.6450 15.02536538138939
STARLINK-5678           
1 55460U 23015M   25222.49416619 -.00000067  00000+0  10105-4 0  9998
2 55460  43.0049  33.6601 0001359 263.8807  96.1880 15.02537224138985
STARLINK-5646           
1 55461U 23015N   25222.16843885  .00000046  00000+0  18514-4 0  9990
2 55461  43.0051  35.5165 0001435 265.5528  94.5150 15.02534506138936
STARLINK-5673           
1 55462U 23015P   25221.81828658  .00001089  00000+0  95685-4 0  9995
2 55462  43.0038  37.1889 0001145 270.5673  89.5038 15.02540379138886
STARLINK-5677           
1 55463U 23015Q   25222.48860603 -.00019229  00000+0 -14094-2 0  9996
2 55463  43.0041  33.6162 0001778 283.3192  76.7452 15.02612052138983
STARLINK-5676           
1 55464U 23015R   25222.21049471  .00000609  00000+0  60158-4 0  9994
2 55464  43.0041  34.9714 0001259 261.4821  98.5878 15.02539644138946
STARLINK-5674           
1 55465U 23015S   25222.21382855 -.00000085  00000+0  87512-5 0  9994
2 55465  43.0046  34.9953 0001336 266.1275  93.9414 15.02536156138948
STARLINK-5628           
1 55466U 23015T   25222.19717541  .00000328  00000+0  39365-4 0  9997
2 55466  43.0038  34.8713 0001305 266.1188  93.9505 15.02538646138949
